STARLINK-3276           
1 50189U 21125AK  26068.90295688  .00029472  00000+0  16874-2 0  9994
2 50189  53.2144 247.2888 0004579 141.1703 218.9620 15.12414704236687
PIESAT C                
1 56155U 23047C   26068.57334840  .00004309  00000+0  23896-3 0  9990
2 56155  97.5027 257.1489 0001962  78.3327 281.8125 15.14301617162722
